0 IRIDIUM 159
1 43578U 18061K   24006.23896408  .00000271  00000-0  89690-4 0  9991
2 43578  86.3951  69.8981 0002244  98.1249 262.0202 14.34217012285393
0 IRIDIUM 180
1 43922U 19002A   24006.51753009  .00000328  00000-0  10994-3 0  9993
2 43922  86.3963   6.6573 0002179  94.9963 265.1482 14.34214684261041
0 IRIDIUM 176
1 43923U 19002B   24006.47119253  .00001147  00000-0  17804-3 0  9993
2 43923  86.6099   6.7054 0002493  90.2931 269.8571 14.72236741267904
0 IRIDIUM 168
1 43924U 19002C   24006.51119947  .00000336  00000-0  11274-3 0  9993
2 43924  86.3973   6.7104 0002196  92.9311 267.2136 14.34218013261026
0 IRIDIUM 173
1 43925U 19002D   24006.49851371  .00000336  00000-0  11308-3 0  9993
2 43925  86.3969   6.6409 0002315  91.5609 268.5852 14.34218152261008
0 IRIDIUM 169
1 43926U 19002E   24006.50392057  .00000368  00000-0  11374-3 0  9995
2 43926  86.4213  38.2454 0004617  66.5454 293.6229 14.38618501261889
0 IRIDIUM 172
1 43927U 19002F   24006.49217353  .00000335  00000-0  11256-3 0  9992
2 43927  86.3970   6.6490 0002123  91.8965 268.2474 14.34217815261010
0 IRIDIUM 175
1 43928U 19002G   24006.46518501  .00001218  00000-0  18932-3 0  9998
2 43928  86.1517 349.0560 0002468  87.4645 272.6854 14.72238747267898
